CCSDS_OEM_VERS = 2.0  
CREATION_DATE  = 2026-03-24T10:47:16
ORIGINATOR     = ESOC/OPS-GFA                            
 
 



META_START
OBJECT_NAME          = LISA                                    
OBJECT_ID            = -1000                                   
CENTER_NAME          = SUN                     
REF_FRAME            = EME2000 
TIME_SYSTEM          = TCB
START_TIME           = 2036-12-23T00:00:30.346418            
STOP_TIME            = 2047-09-06T04:54:58.507178            
INTERPOLATION        = HERMITE                                 
INTERPOLATION_DEGREE = 7                                       
META_STOP

2042-08-10T07:35:15.766421     7.01286577055092156e+07   -1.22631770304965183e+08   -5.18003846616634429e+07    2.62183519401884837e+01    1.26511128426765005e+01    5.50868718229151089e+00   -2.73211268115634683e-06    4.77767419383444085e-06    2.01811142495214692e-06
2042-08-11T03:47:03.805957     7.20276557458558381e+07   -1.21699336062759459e+08   -5.13945383541654795e+07    2.60170139857455887e+01    1.29971706536282579e+01    5.65484660350992385e+00   -2.80605168772681302e-06    4.74127230261206890e-06    2.00226802115326025e-06
2042-08-11T23:58:51.845492     7.39118199707383811e+07   -1.20741837714015797e+08   -5.09781073225985020e+07    2.58103207696510211e+01    1.33405467608697670e+01    5.79983930314842677e+00   -2.87941893406724190e-06    4.70390906994445756e-06    1.98601863154458507e-06
2042-08-12T20:10:39.885028     7.57807625600706935e+07   -1.19759472787995115e+08   -5.05511774728112891e+07    2.55983143864921878e+01    1.36811715384633850e+01    5.94363588069318194e+00   -2.95220004495518469e-06    4.66559197944376445e-06    1.96936650839632354e-06
2042-08-13T16:22:27.924564     7.76340987432026863e+07   -1.18752443825364664e+08   -5.01138368266958743e+07    2.53810379732874019e+01    1.40189759093111341e+01    6.08620717408948675e+00   -3.02438072392224594e-06    4.62632864766701168e-06    1.95231496009953948e-06
2042-08-14T12:34:15.964100     7.94714469165153205e+07   -1.17720958365521058e+08   -4.96661755162205473e+07    2.51585357031997781e+01    1.43538913554345200e+01    6.22752426408080240e+00   -3.09594676819780052e-06    4.58612684032111270e-06    1.93486735799498161e-06
2042-08-15T08:46:04.003635     8.12924287405128032e+07   -1.16665228919898838e+08   -4.92082857716052532e+07    2.49308527782577869e+01    1.46858499293025382e+01    6.36755847898949234e+00   -3.16688408113033156e-06    4.54499448498560881e-06    1.91702714173408842e-06
2042-08-16T04:57:52.043171     8.30966692207894325e+07   -1.15585472934132084e+08   -4.87402619048369080e+07    2.46980354212642581e+01    1.50147842659582942e+01    6.50628139983404807e+00   -3.23717868209142881e-06    4.50293968035849278e-06    1.89879782317430305e-06
2042-08-17T01:09:40.082707     8.48837967772287130e+07   -1.14481912741943434e+08   -4.82622002897252142e+07    2.44601308670769768e+01    1.53406275956911884e+01    6.64366486567611947e+00   -3.30681671385578598e-06    4.45997070201518338e-06    1.88018298880450737e-06
2042-08-17T21:21:28.122242     8.66534433057929277e+07   -1.13354775513634518e+08   -4.77741993396995217e+07    2.42171873534441033e+01    1.56633137570015784e+01    6.77968097909070089e+00   -3.37578444746899913e-06    4.41609600469818328e-06    1.86118630070795959e-06
2042-08-18T17:33:16.161778     8.84052442372612059e+07   -1.12204293202052340e+08   -4.72763594845472053e+07    2.39692541115775626e+01    1.59827772096049365e+01    6.91430211165277164e+00   -3.44406828458390716e-06    4.37132422110880526e-06    1.84181149605073502e-06
2042-08-19T13:45:04.201314     9.01388385972740203e+07   -1.11030702488905892e+08   -4.67687831472941637e+07    2.37163813566476698e+01    1.62989530472223869e+01    7.04750090933374995e+00   -3.51165475729302541e-06    4.32566415724060589e-06    1.82206238511230039e-06
2042-08-20T09:56:52.240849     9.18538690720422566e+07   -1.09834244734307021e+08   -4.62515747224279940e+07    2.34586202783820923e+01    1.66117770099046069e+01    7.17925029770106349e+00   -3.57853052543224960e-06    4.27912478422285389e-06    1.80194284784499070e-06
2042-08-21T06:08:40.280385     9.35499820840786099e+07   -1.08615165932410166e+08   -4.57248405566643029e+07    2.31960230319524250e+01    1.69211854956360526e+01    7.30952348681418229e+00   -3.64468237135062306e-06    4.23171522665522703e-06    1.78145682895417213e-06
2042-08-22T02:20:28.319921     9.52268278823097348e+07   -1.07373716676024929e+08   -4.51886889334568083e+07    2.29286427293315569e+01    1.72271155709664292e+01    7.43829397571041984e+00   -3.71009719220217262e-06    4.18344474753256376e-06    1.76060833154121315e-06
2042-08-22T22:32:16.359456     9.68840606509267837e+07   -1.06110152133076072e+08   -4.46432300624516457e+07    2.26565334313049433e+01    1.75295049804163732e+01    7.56553555637387909e+00   -3.77476198967873928e-06    4.13432272962500966e-06    1.73940140925212481e-06
2042-08-23T18:44:04.398992     9.85213386413325667e+07   -1.04824732037784874e+08   -4.40885760750865266e+07    2.23797501403191177e+01    1.78282921544043091e+01    7.69122231708078363e+00   -3.83866385720848430e-06    4.08435865335190498e-06    1.71784015694807685e-06
2042-08-24T14:56:04.957734     1.00138600735228539e+08   -1.03517493663533479e+08   -4.35247431253445745e+07    2.20982999355213714e+01    1.81234667282427289e+01    7.81534988336769931e+00   -3.90180112013754237e-06    4.03355375511629410e-06    1.69592510889002935e-06
2042-08-25T11:08:05.516476     1.01735229373562366e+08   -1.02188925100774959e+08   -4.29519418056701198e+07    2.18122869449309569e+01    1.84149167713862312e+01    7.93787117106530005e+00   -3.96414998734724374e-06    3.98192628007551847e-06    1.67366414096236443e-06
2042-08-26T07:20:06.075217     1.03310894872695997e+08   -1.00839299372886851e+08   -4.23702898393343017e+07    2.15217689507288910e+01    1.87025828331583384e+01    8.05876118322865409e+00   -4.02569810924914974e-06    3.92948635584565819e-06    1.65106162129775936e-06
2042-08-27T03:32:06.633959     1.04865271727948189e+08   -9.94688937798850089e+07   -4.17799067476656958e+07    2.12268046294854678e+01    1.89864062036094658e+01    8.17799524235930875e+00   -4.08643324080639553e-06    3.87624422905065562e-06    1.62812196835482378e-06
2042-08-27T23:44:07.192701     1.06398038726132229e+08   -9.80779898621403724e+07   -4.11809138340701535e+07    2.09274535438764993e+01    1.92663289226391257e+01    8.29554899426289261e+00   -4.14634325965930918e-06    3.82221027764075197e-06    1.60484965612800806e-06
2042-08-28T19:56:07.751443     1.07908879034673363e+08   -9.66668733547894508e+07   -4.05734341642030478e+07    2.06237761331995806e+01    1.95422937899092410e+01    8.41139841224134166e+00   -4.20541618106808593e-06    3.76739502041630977e-06    1.58124921817599356e-06
2042-08-29T16:08:08.310184     1.09397480272280991e+08   -9.52358341346974969e+07   -3.99575925430608392e+07    2.03158337029192637e+01    1.98142443753485651e+01    8.52551980153515210e+00   -4.26364016967771663e-06    3.71180912376018574e-06    1.55732525046981086e-06
2042-08-30T12:20:08.868926     1.10863534566134065e+08   -9.37851661618440449e+07   -3.93335154897630885e+07    2.00036884134724104e+01    2.00821250300449918e+01    8.63788980392976313e+00   -4.32100354809910663e-06    3.65546340557270704e-06    1.53308241305825430e-06
2042-08-31T08:32:09.427667     1.12306738600538000e+08   -9.23151674170005322e+07   -3.87013312107964084e+07    1.96874032685649709e+01    2.03458808973225729e+01    8.74848540244016881e+00   -4.37749480231679499e-06    3.59836883641886220e-06    1.50852543055460707e-06
2042-09-01T04:44:09.986410     1.13726793662011579e+08   -9.08261398375694603e+07   -3.80611695724915341e+07    1.93670421031914231e+01    2.06054579238001665e+01    8.85728392598785952e+00   -4.43310258390135625e-06    3.54053653786794333e-06    1.48365909143633359e-06
2042-09-02T00:56:10.545151     1.15123405685762048e+08   -8.93183892534549683e+07   -3.74131620735049397e+07    1.90426695716081227e+01    2.08608028702284756e+01    8.96426305398421874e+00   -4.48781570908013415e-06    3.48197777807429108e-06    1.45848824617826891e-06
2042-09-02T21:08:11.103893     1.16496285308506951e+08   -8.77922253248342574e+07   -3.67574418180762827e+07    1.87143511354918175e+01    2.11118633219023621e+01    9.06940082073444387e+00   -4.54162315456691638e-06    3.42270396450940672e-06    1.43301780418148642e-06
2042-09-03T17:20:11.662635     1.17845147932601035e+08   -8.62479614836997539e+07   -3.60941434908330441e+07    1.83821530525145569e+01    2.13585876984452838e+01    9.17267561957614852e+00   -4.59451405025872171e-06    3.36272663394024803e-06    1.40725272953779287e-06
2042-09-04T13:32:12.221376     1.19169713806426436e+08   -8.46859148810414076e+07   -3.54234033339135572e+07    1.80461423655662792e+01    2.16009252627626722e+01    9.27406620666668324e+00   -4.64647766875592629e-06    3.30205743962249636e-06    1.38119803561673059e-06
2042-09-05T09:44:12.780119     1.20469708126004800e+08   -8.31064063415389061e+07   -3.47453591271799654e+07    1.77063868928562265e+01    2.18388261289611059e+01    9.37355170433334806e+00   -4.69750341168859809e-06    3.24070813568176213e-06    1.35485877846357511e-06
2042-09-06T05:56:13.338860     1.21744861162789553e+08   -8.15097603276336044e+07   -3.40601501722923219e+07    1.73629552191246077e+01    2.20722412690301191e+01    9.47111160390056206e+00   -4.74758079278937189e-06    3.17869055863406642e-06    1.32824004898800681e-06
2042-09-07T02:10:05.186450     1.22996801794784695e+08   -7.98938229417074174e+07   -3.33668525675692447e+07    1.70153828502337241e+01    2.23014693034603724e+01    9.56687059639215498e+00   -4.79677430240838224e-06    3.11592060213556898e-06    1.30130577079081781e-06
